satname,norad_id,inclination_deg,eccentricity,mean_motion_rev_per_day,perigee_km,apogee_km,l1,l2
STARLINK-1234,45190,53.0331,0.0003837,15.8683999,308.5821003023757,313.7154582093772,1 45190U 20012N   26200.82723433  .00098040  00000+0  37258-3 0  9994,2 45190  53.0331  29.1393 0003837 281.5105  78.5487 15.86839990356670
STARLINK-1269,45197,53.1534,0.0003386,15.3829096,448.850469639965,453.4752715123195,1 45197U 20012V   26200.86825522  .00029246  00000+0  77091-3 0  9998,2 45197  53.1534 142.6428 0003386  61.6365 298.4981 15.38290960355190
STARLINK-1154,45198,53.0403,0.0004051,15.66969985,364.84635824568704,370.31173738762936,1 45198U 20012W   26200.41264100  .00027599  00000+0  25917-3 0  9998,2 45198  53.0403  90.5394 0004051 104.8681 255.2784 15.66969985355822
STARLINK-1199,45201,53.1548,0.0005431,15.38277011,447.4951404423364,454.91317080557474,1 45201U 20012Z   26200.51501735  .00027796  00000+0  73352-3 0  9997,2 45201  53.1548 128.5794 0005431  58.8832 301.2704 15.38277011355389
STARLINK-1209,45206,53.0348,0.0001569,15.75255117,342.85062589053086,344.9600027687675,1 45206U 20012AE  26200.79399706  .00050386  00000+0  33063-3 0  9991,2 45206  53.0348  47.0684 0001569 254.8530 105.2315 15.75255117355570
STARLINK-1231,45212,53.037,0.000289,15.303581,472.7625696224259,476.72353429245777,1 45212U 20012AL  26200.77034500  .00016998  00000+0  58183-3 0  9995,2 45212  53.0370 124.3879 0002890 116.0005 244.1292 15.30358100355395
STARLINK-1271,45217,53.154,0.0005105,15.38472911,447.13832213749447,454.1104875318315,1 45217U 20012AR  26200.83232705  .00029365  00000+0  76929-3 0  9994,2 45217  53.1540 127.1550 0005105  66.8199 293.3342 15.38472911355437
STARLINK-1191,45222,53.1524,0.0002669,15.42955548,435.57285714875434,439.21098648722,1 45222U 20012AW  26200.04968909  .00032531  00000+0  73401-3 0  9996,2 45222  53.1524 102.5887 0002669  48.4140 311.7095 15.42955548355717
STARLINK-1212,45223,53.0385,0.0001145,15.73904149,346.98124770659524,348.52147614147543,1 45223U 20012AX  26200.88170185  .00044792  00000+0  31226-3 0  9991,2 45223  53.0385  62.3272 0001145 216.6134 143.4806 15.73904149356326
STARLINK-1215,45225,53.1539,0.0005153,15.38540956,446.9043027484395,453.9418167460144,1 45225U 20012AZ  26200.11354217  .00028578  00000+0  74737-3 0  9997,2 45225  53.1539 104.7623 0005153  67.7171 292.4380 15.38540956355649
STARLINK-1221,45227,53.065,0.0002852,15.46650636,424.59162722944257,428.4730106089546,1 45227U 20012BB  26200.68583919  .00008884  00000+0  18360-3 0  9992,2 45227  53.0650   1.9744 0002852  74.6979 285.4343 15.46650636357102
STARLINK-1222,45228,53.0515,0.0001493,15.59843756,387.09867639414915,389.11907741299274,1 45228U 20012BC  26200.91667823  .00151148  00000+0  18189-2 0  9996,2 45228  53.0515  64.8482 0001493  45.6886 184.8982 15.59843756  5994
STARLINK-1226,45229,53.1524,0.0004674,15.48477111,418.0023917032968,424.3583936019486,1 45229U 20012BD  26200.73213329  .00037118  00000+0  69189-3 0  9992,2 45229  53.1524  95.0891 0004674  71.4355 288.7162 15.48477111355772
STARLINK-1227,45230,53.1502,0.000445,15.48533257,417.9904175605079,424.04166376669855,1 45230U 20012BE  26200.73951674  .00035711  00000+0  66481-3 0  9995,2 45230  53.1502  95.1252 0004450  65.6929 294.4544 15.48533257355891
STARLINK-1246,45235,53.1525,0.0005016,15.38541869,446.99515391112254,453.8455626529503,1 45235U 20012BK  26200.54618428  .00026481  00000+0  69348-3 0  9995,2 45235  53.1525 143.7431 0005016  31.1650 328.9651 15.38541869355202
STARLINK-1270,45237,53.0383,9.78e-05,15.72857806,350.07587732966476,351.39204448961846,1 45237U 20012BM  26200.82094280  .00043131  00000+0  31464-3 0  9991,2 45237  53.0383  64.6147 0000978 209.7415 150.3547 15.72857806356283
STARLINK-1279,45360,53.0305,0.0003501,15.88334633,304.6112028794787,309.2921019539008,1 45360U 20019A   26200.89578411  .00112482  00000+0  39608-3 0  9999,2 45360  53.0305 163.1567 0003501  63.2614 296.8768 15.88334633351465
STARLINK-1301,45361,53.0289,0.0005519,15.90008669,298.57166758588846,305.9454882247819,1 45361U 20019B   26200.91667823  .00140145  18234-4  46712-3 0  9993,2 45361  53.0289 164.8837 0005519  65.6968 205.1319 15.90008669  6062
STARLINK-1262,45366,53.1525,0.0002714,15.37516189,451.6028219512782,455.3110111291753,1 45366U 20019G   26200.60981992  .00040872  00000+0  10990-2 0  9991,2 45366  53.1525 270.1919 0002714 320.4254  39.6551 15.37516189349988
STARLINK-1273,45367,53.0396,0.0003156,15.62988714,376.8968289667946,381.16195239259196,1 45367U 20019H   26200.39674348  .00051613  00000+0  56069-3 0  9995,2 45367  53.0396 239.1625 0003156   5.6970 354.4079 15.62988714350374
STARLINK-1276,45368,53.0703,4.43e-05,15.16218879,516.9751598520361,517.5860938537762,1 45368U 20019J   26200.49690499  .00011827  00000+0  61952-3 0  9992,2 45368  53.0703 288.6992 0000443  58.1958 301.9079 15.16218879349695
STARLINK-1277,45369,53.0384,0.0003782,15.71257939,352.7541923095105,357.8473646451521,1 45369U 20019K   26200.50851213  .00035068  00000+0  27474-3 0  9992,2 45369  53.0384 230.0635 0003782  33.6231 326.5026 15.71257939350516
STARLINK-1281,45370,53.1548,0.0001859,15.38307356,449.84478608154586,452.38390173121024,1 45370U 20019L   26200.59896052  .00022741  00000+0  60198-3 0  9997,2 45370  53.1548 269.6396 0001859 305.6918  54.3913 15.38307356349993
STARLINK-1300,45374,53.1558,0.0002247,15.38990807,447.5582459522484,450.6264028106252,1 45374U 20019Q   26200.46502042  .00023342  00000+0  60401-3 0  9995,2 45374  53.1558 270.0017 0002247 317.3205  42.7625 15.38990807349973
STARLINK-1302,45375,53.0426,0.0001115,15.71500661,353.8567293467022,355.35813135467106,1 45375U 20019R   26200.79520588  .00032825  00000+0  25499-3 0  9991,2 45375  53.0426 224.4297 0001115  53.2846 306.8274 15.71500661350619
STARLINK-1304,45376,53.0389,0.0001764,15.67018674,366.2493962015569,368.62923552579286,1 45376U 20019S   26200.78177738  .00025396  00000+0  23855-3 0  9995,2 45376  53.0389 227.0857 0001764 356.9016   3.1988 15.67018674350578
STARLINK-1305,45377,53.0356,0.0007492,15.76941968,334.07819569012554,344.14331973027856,1 45377U 20019T   26200.30553310  .00050987  00000+0  31021-3 0  9996,2 45377  53.0356 205.2066 0007492  33.1492 326.9996 15.76941968350845
STARLINK-1319,45379,53.0331,0.0004162,15.85390065,312.44085576813904,318.01241165684223,1 45379U 20019V   26200.84450507  .00080403  00000+0  32901-3 0  9995,2 45379  53.0331 192.0021 0004162  47.9250 312.2126 15.85390065351075
STARLINK-1266,45383,53.0421,0.0004878,15.69606375,356.7364272231989,363.3101764136527,1 45383U 20019Z   26200.73095022  .00029700  00000+0  25006-3 0  9996,2 45383  53.0421 211.5344 0004878  28.8576 331.2709 15.69606375350789
STARLINK-1267,45384,53.0407,0.000313,15.74433624,344.1386221868279,348.3480842879553,1 45384U 20019AA  26200.30618488  .00043483  00000+0  29644-3 0  9993,2 45384  53.0407 203.9919 0003130  50.1469 309.9824 15.74433624350855
STARLINK-1272,45386,53.0368,0.000301,15.79756028,329.11182710219055,333.15080662894434,1 45386U 20019AC  26200.64867154  .00061656  00000+0  33000-3 0  9991,2 45386  53.0368 179.6217 0003010  69.4686 290.6657 15.79756028351227
STARLINK-1274,45387,53.0161,0.0005717,15.70060836,354.87151618384905,362.5744418838767,1 45387U 20019AD  26200.66966351  .00084392  00000+0  68376-3 0  9999,2 45387  53.0161 181.5096 0005717 353.0827   7.0109 15.70060836351195
STARLINK-1280,45388,53.029,0.0005669,15.9424175,286.64759762896574,294.208416634051,1 45388U 20019AE  26200.91667823  .00113665  16157-4  30563-3 0  9998,2 45388  53.0290 181.9252 0005669  56.7700 216.6973 15.94241750  6039
STARLINK-1283,45389,53.0342,0.0003988,15.76932453,336.4589291525226,341.81662751572094,1 45389U 20019AF  26200.24779532  .00050192  00000+0  30595-3 0  9991,2 45389  53.0342 181.0008 0003988  29.6636 330.4609 15.76932453351173
STARLINK-1284,45390,53.039,0.00042,15.74903574,342.0819089068882,347.72926467979505,1 45390U 20019AG  26200.82093405  .00042322  00000+0  28282-3 0  9991,2 45390  53.0390 202.5977 0004200  78.4432 281.7058 15.74903574350913
STARLINK-1297,45395,53.0385,0.0003879,15.78189662,332.96567129791583,338.174165125065,1 45395U 20019AM  26200.85707551  .00056235  00000+0  32348-3 0  9999,2 45395  53.0385 200.9699 0003879  48.5762 311.5590 15.78189662350124
STARLINK-1307,45397,53.0505,0.0002749,15.59369836,387.6193106175451,391.34014629484955,1 45397U 20019AP  26200.76433358  .00021109  00000+0  26831-3 0  9994,2 45397  53.0505 212.2868 0002749  17.4879 342.6227 15.59369836350600
STARLINK-1255,45399,53.0322,0.0001791,15.69467014,359.2152971021951,361.62904899798195,1 45399U 20019AR  26200.16394689  .00032257  00000+0  27275-3 0  9992,2 45399  53.0322 180.0799 0001791   4.5731 355.5301 15.69467014350989
STARLINK-1260,45404,53.1536,0.000186,15.41674356,439.8989900535089,442.435771283117,1 45404U 20019AW  26200.81516191  .00027778  00000+0  65595-3 0  9994,2 45404  53.1536 230.3780 0001860 332.5844  27.5063 15.41674356350271
STARLINK-1263,45405,53.1543,0.000363,15.38578423,447.8334742071029,452.790928327222,1 45405U 20019AX  26200.80151544  .00021290  00000+0  55935-3 0  9991,2 45405  53.1543 232.5936 0003630 334.6588  25.4238 15.38578423350244
STARLINK-1265,45406,53.1527,0.0002887,15.4208068,438.00105829404583,441.9378329557503,1 45406U 20019AY  26200.79668025  .00025580  00000+0  59685-3 0  9999,2 45406  53.1527 230.3337 0002887   7.5800 352.5249 15.42080680350271
STARLINK-1278,45408,53.0358,0.0003125,15.79368008,330.13317328703124,334.32715276392173,1 45408U 20019BA  26200.28484536  .00055956  00000+0  30534-3 0  9990,2 45408  53.0358 202.4241 0003125  52.8786 307.2520 15.79368008350597
STARLINK-1296,45412,53.1527,0.000181,15.42190988,438.41030506516836,440.8783419042702,1 45412U 20019BE  26200.31303681  .00027590  00000+0  64051-3 0  9994,2 45412  53.1527 232.2602 0001810 346.7616  13.3342 15.42190988350204
